{
  "type": "FeatureCollection",
  "features": [
    {
      "type": "Feature",
      "properties": {
        "norad_id": 29486,
        "name": "GPS BIIRM-2 (PRN 31)",
        "group": "gps-ops",
        "lat": -16.476982220960977,
        "lon": -9.005803066665148,
        "alt_km": 20427.441925140953,
        "timestamp": "2025-12-08T19:31:49.069083+00:00",
        "meta_object_name": "GPS BIIRM-2 (PRN 31)",
        "meta_object_id": "2006-042A",
        "meta_epoch": "2025-12-08T04:03:19.247328",
        "meta_mean_motion": 2.00554246,
        "meta_eccentricity": 0.01073661,
        "meta_inclination": 54.6935,
        "meta_ra_of_asc_node": 158.9221,
        "meta_arg_of_pericenter": 51.8493,
        "meta_mean_anomaly": 42.2543,
        "meta_ephemeris_type": 0,
        "meta_classification_type": "U",
        "meta_norad_cat_id": 29486,
        "meta_element_set_no": 999,
        "meta_rev_at_epoch": 14056,
        "meta_bstar": 0,
        "meta_mean_motion_dot": 5.8e-07,
        "meta_mean_motion_ddot": 0,
        "tle_line1": "1 29486U 06042A   25342.16897277  .00000058  00000+0  00000+0 0  9995",
        "tle_line2": "2 29486  54.6935 158.9221 0107366  51.8493  42.2543  2.00554246140568"
      },
      "geometry": {
        "type": "Point",
        "coordinates": [
          -9.005803066665148,
          -16.476982220960977
        ]
      }
    },
    {
      "type": "Feature",
      "properties": {
        "norad_id": 29601,
        "name": "GPS BIIRM-3 (PRN 12)",
        "group": "gps-ops",
        "lat": -52.98160214196465,
        "lon": 109.9275938237269,
        "alt_km": 20416.012070998237,
        "timestamp": "2025-12-08T19:31:49.069093+00:00",
        "meta_object_name": "GPS BIIRM-3 (PRN 12)",
        "meta_object_id": "2006-052A",
        "meta_epoch": "2025-12-07T23:03:27.935136",
        "meta_mean_motion": 2.00573134,
        "meta_eccentricity": 0.00876554,
        "meta_inclination": 54.9714,
        "meta_ra_of_asc_node": 221.5879,
        "meta_arg_of_pericenter": 87.3887,
        "meta_mean_anomaly": 273.7008,
        "meta_ephemeris_type": 0,
        "meta_classification_type": "U",
        "meta_norad_cat_id": 29601,
        "meta_element_set_no": 999,
        "meta_rev_at_epoch": 13957,
        "meta_bstar": 0,
        "meta_mean_motion_dot": 2.2e-07,
        "meta_mean_motion_ddot": 0,
        "tle_line1": "1 29601U 06052A   25341.96073999  .00000022  00000+0  00000+0 0  9990",
        "tle_line2": "2 29601  54.9714 221.5879 0087655  87.3887 273.7008  2.00573134139573"
      },
      "geometry": {
        "type": "Point",
        "coordinates": [
          109.9275938237269,
          -52.98160214196465
        ]
      }
    },
    {
      "type": "Feature",
      "properties": {
        "norad_id": 32260,
        "name": "GPS BIIRM-4 (PRN 15)",
        "group": "gps-ops",
        "lat": 28.181849837350693,
        "lon": 110.85516826388455,
        "alt_km": 19891.110320603515,
        "timestamp": "2025-12-08T19:31:49.069104+00:00",
        "meta_object_name": "GPS BIIRM-4 (PRN 15)",
        "meta_object_id": "2007-047A",
        "meta_epoch": "2025-12-07T18:25:34.370688",
        "meta_mean_motion": 2.00564615,
        "meta_eccentricity": 0.01643014,
        "meta_inclination": 53.9519,
        "meta_ra_of_asc_node": 87.9639,
        "meta_arg_of_pericenter": 85.1876,
        "meta_mean_anomaly": 276.6737,
        "meta_ephemeris_type": 0,
        "meta_classification_type": "U",
        "meta_norad_cat_id": 32260,
        "meta_element_set_no": 999,
        "meta_rev_at_epoch": 13297,
        "meta_bstar": 0,
        "meta_mean_motion_dot": -1.8e-07,
        "meta_mean_motion_ddot": 0,
        "tle_line1": "1 32260U 07047A   25341.76775892 -.00000018  00000+0  00000+0 0  9995",
        "tle_line2": "2 32260  53.9519  87.9639 0164301  85.1876 276.6737  2.00564615132978"
      },
      "geometry": {
        "type": "Point",
        "coordinates": [
          110.85516826388455,
          28.181849837350693
        ]
      }
    },
    {
      "type": "Feature",
      "properties": {
        "norad_id": 32384,
        "name": "GPS BIIRM-5 (PRN 29)",
        "group": "gps-ops",
        "lat": 11.248511968205975,
        "lon": 93.84304141419022,
        "alt_km": 20094.326950398066,
        "timestamp": "2025-12-08T19:31:49.069115+00:00",
        "meta_object_name": "GPS BIIRM-5 (PRN 29)",
        "meta_object_id": "2007-062A",
        "meta_epoch": "2025-12-08T07:46:47.506944",
        "meta_mean_motion": 2.00576984,
        "meta_eccentricity": 0.00322211,
        "meta_inclination": 55.1861,
        "meta_ra_of_asc_node": 281.823,
        "meta_arg_of_pericenter": 162.5952,
        "meta_mean_anomaly": 10.0568,
        "meta_ephemeris_type": 0,
        "meta_classification_type": "U",
        "meta_norad_cat_id": 32384,
        "meta_element_set_no": 999,
        "meta_rev_at_epoch": 13168,
        "meta_bstar": 0,
        "meta_mean_motion_dot": -4.5e-07,
        "meta_mean_motion_ddot": 0,
        "tle_line1": "1 32384U 07062A   25342.32416096 -.00000045  00000+0  00000+0 0  9990",
        "tle_line2": "2 32384  55.1861 281.8230 0032221 162.5952  10.0568  2.00576984131682"
      },
      "geometry": {
        "type": "Point",
        "coordinates": [
          93.84304141419022,
          11.248511968205975
        ]
      }
    },
    {
      "type": "Feature",
      "properties": {
        "norad_id": 32711,
        "name": "GPS BIIRM-6 (PRN 07)",
        "group": "gps-ops",
        "lat": 54.44847042974212,
        "lon": -112.92139513590003,
        "alt_km": 20661.381451482248,
        "timestamp": "2025-12-08T19:31:49.069126+00:00",
        "meta_object_name": "GPS BIIRM-6 (PRN 07)",
        "meta_object_id": "2008-012A",
        "meta_epoch": "2025-12-07T16:30:50.099904",
        "meta_mean_motion": 2.00565328,
        "meta_eccentricity": 0.02022386,
        "meta_inclination": 54.4764,
        "meta_ra_of_asc_node": 157.5746,
        "meta_arg_of_pericenter": 244.892,
        "meta_mean_anomaly": 113.0048,
        "meta_ephemeris_type": 0,
        "meta_classification_type": "U",
        "meta_norad_cat_id": 32711,
        "meta_element_set_no": 999,
        "meta_rev_at_epoch": 12991,
        "meta_bstar": 0,
        "meta_mean_motion_dot": 5.7e-07,
        "meta_mean_motion_ddot": 0,
        "tle_line1": "1 32711U 08012A   25341.68807986  .00000057  00000+0  00000+0 0  9992",
        "tle_line2": "2 32711  54.4764 157.5746 0202238 244.8920 113.0048  2.00565328129917"
      },
      "geometry": {
        "type": "Point",
        "coordinates": [
          -112.92139513590003,
          54.44847042974212
        ]
      }
    },
    {
      "type": "Feature",
      "properties": {
        "norad_id": 35752,
        "name": "GPS BIIRM-8 (PRN 05)",
        "group": "gps-ops",
        "lat": 50.790579260965806,
        "lon": 159.47709251249017,
        "alt_km": 20055.214631343304,
        "timestamp": "2025-12-08T19:31:49.069136+00:00",
        "meta_object_name": "GPS BIIRM-8 (PRN 05)",
        "meta_object_id": "2009-043A",
        "meta_epoch": "2025-12-08T03:13:53.099904",
        "meta_mean_motion": 2.00565854,
        "meta_eccentricity": 0.00519295,
        "meta_inclination": 56.0878,
        "meta_ra_of_asc_node": 34.9648,
        "meta_arg_of_pericenter": 81.9835,
        "meta_mean_anomaly": 258.3784,
        "meta_ephemeris_type": 0,
        "meta_classification_type": "U",
        "meta_norad_cat_id": 35752,
        "meta_element_set_no": 999,
        "meta_rev_at_epoch": 11952,
        "meta_bstar": 0,
        "meta_mean_motion_dot": -8e-07,
        "meta_mean_motion_ddot": 0,
        "tle_line1": "1 35752U 09043A   25342.13464236 -.00000080  00000+0  00000+0 0  9990",
        "tle_line2": "2 35752  56.0878  34.9648 0051929  81.9835 258.3784  2.00565854119522"
      },
      "geometry": {
        "type": "Point",
        "coordinates": [
          159.47709251249017,
          50.790579260965806
        ]
      }
    },
    {
      "type": "Feature",
      "properties": {
        "norad_id": 36585,
        "name": "GPS BIIF-1  (PRN 25)",
        "group": "gps-ops",
        "lat": -38.20508481975298,
        "lon": 70.68828507269083,
        "alt_km": 20510.079220738284,
        "timestamp": "2025-12-08T19:31:49.069146+00:00",
        "meta_object_name": "GPS BIIF-1  (PRN 25)",
        "meta_object_id": "2010-022A",
        "meta_epoch": "2025-12-08T05:43:48.381888",
        "meta_mean_motion": 2.00552915,
        "meta_eccentricity": 0.01259265,
        "meta_inclination": 54.3009,
        "meta_ra_of_asc_node": 216.2555,
        "meta_arg_of_pericenter": 65.0249,
        "meta_mean_anomaly": 109.07,
        "meta_ephemeris_type": 0,
        "meta_classification_type": "U",
        "meta_norad_cat_id": 36585,
        "meta_element_set_no": 999,
        "meta_rev_at_epoch": 11376,
        "meta_bstar": 0,
        "meta_mean_motion_dot": 2.3e-07,
        "meta_mean_motion_ddot": 0,
        "tle_line1": "1 36585U 10022A   25342.23875442  .00000023  00000+0  00000+0 0  9996",
        "tle_line2": "2 36585  54.3009 216.2555 0125926  65.0249 109.0700  2.00552915113761"
      },
      "geometry": {
        "type": "Point",
        "coordinates": [
          70.68828507269083,
          -38.20508481975298
        ]
      }
    }
  ]
}